[{"OBJECT_NAME":"STARLINK-33865","OBJECT_ID":"2025-119Q","EPOCH":"2026-03-05T02:50:44.762496","MEAN_MOTION":15.27553394,"ECCENTRICITY":0.00013678,"INCLINATION":43.0039,"RA_OF_ASC_NODE":332.5709,"ARG_OF_PERICENTER":262.3282,"MEAN_ANOMALY":97.7414,"EPHEMERIS_TYPE":0,"CLASSIFICATION_TYPE":"U","NORAD_CAT_ID":64247,"ELEMENT_SET_NO":999,"REV_AT_EPOCH":4344,"BSTAR":0.0010816956,"MEAN_MOTION_DOT":0.00029599,"MEAN_MOTION_DDOT":0},{"OBJECT_NAME":"STARLINK-34234","OBJECT_ID":"2025-119R","EPOCH":"2026-03-05T19:09:19.828224","MEAN_MOTION":15.27577529,"ECCENTRICITY":0.0001717,"INCLINATION":43.0024,"RA_OF_ASC_NODE":329.0756,"ARG_OF_PERICENTER":286.9606,"MEAN_ANOMALY":73.1058,"EPHEMERIS_TYPE":0,"CLASSIFICATION_TYPE":"U","NORAD_CAT_ID":64248,"ELEMENT_SET_NO":999,"REV_AT_EPOCH":4357,"BSTAR":0.0020732,"MEAN_MOTION_DOT":0.00057227,"MEAN_MOTION_DDOT":0},{"OBJECT_NAME":"STARLINK-34256","OBJECT_ID":"2025-119S","EPOCH":"2026-03-05T18:43:24.968640","MEAN_MOTION":15.27596777,"ECCENTRICITY":6.16e-5,"INCLINATION":43.0015,"RA_OF_ASC_NODE":328.9358,"ARG_OF_PERICENTER":25.8363,"MEAN_ANOMALY":334.2519,"EPHEMERIS_TYPE":0,"CLASSIFICATION_TYPE":"U","NORAD_CAT_ID":64249,"ELEMENT_SET_NO":999,"REV_AT_EPOCH":4357,"BSTAR":0.0010591,"MEAN_MOTION_DOT":0.00029011,"MEAN_MOTION_DDOT":0},{"OBJECT_NAME":"STARLINK-34229","OBJECT_ID":"2025-119T","EPOCH":"2026-03-05T18:01:03.959328","MEAN_MOTION":15.27598519,"ECCENTRICITY":4.97e-5,"INCLINATION":42.9947,"RA_OF_ASC_NODE":329.5839,"ARG_OF_PERICENTER":338.6135,"MEAN_ANOMALY":21.4696,"EPHEMERIS_TYPE":0,"CLASSIFICATION_TYPE":"U","NORAD_CAT_ID":64250,"ELEMENT_SET_NO":999,"REV_AT_EPOCH":4356,"BSTAR":0.001179,"MEAN_MOTION_DOT":0.00032343,"MEAN_MOTION_DDOT":0},{"OBJECT_NAME":"STARLINK-34224","OBJECT_ID":"2025-119U","EPOCH":"2026-03-05T18:37:52.165344","MEAN_MOTION":15.27588266,"ECCENTRICITY":0.0001012,"INCLINATION":43.0018,"RA_OF_ASC_NODE":328.9108,"ARG_OF_PERICENTER":260.2028,"MEAN_ANOMALY":99.8709,"EPHEMERIS_TYPE":0,"CLASSIFICATION_TYPE":"U","NORAD_CAT_ID":64251,"ELEMENT_SET_NO":999,"REV_AT_EPOCH":4357,"BSTAR":0.00092904,"MEAN_MOTION_DOT":0.00025397,"MEAN_MOTION_DDOT":0},{"OBJECT_NAME":"STARLINK-34215","OBJECT_ID":"2025-119V","EPOCH":"2026-03-05T03:22:12.411552","MEAN_MOTION":15.2756975,"ECCENTRICITY":0.00015727,"INCLINATION":43.0044,"RA_OF_ASC_NODE":332.7356,"ARG_OF_PERICENTER":281.8986,"MEAN_ANOMALY":78.169,"EPHEMERIS_TYPE":0,"CLASSIFICATION_TYPE":"U","NORAD_CAT_ID":64252,"ELEMENT_SET_NO":999,"REV_AT_EPOCH":4347,"BSTAR":0.0010692708,"MEAN_MOTION_DOT":0.0002927,"MEAN_MOTION_DDOT":0},{"OBJECT_NAME":"STARLINK-33893","OBJECT_ID":"2025-119W","EPOCH":"2026-03-05T03:44:24.023040","MEAN_MOTION":15.27607788,"ECCENTRICITY":0.0001653,"INCLINATION":43.0019,"RA_OF_ASC_NODE":332.8534,"ARG_OF_PERICENTER":282.3609,"MEAN_ANOMALY":77.7058,"EPHEMERIS_TYPE":0,"CLASSIFICATION_TYPE":"U","NORAD_CAT_ID":64253,"ELEMENT_SET_NO":999,"REV_AT_EPOCH":4347,"BSTAR":0.0014332689,"MEAN_MOTION_DOT":0.00039423,"MEAN_MOTION_DDOT":0},{"OBJECT_NAME":"STARLINK-34183","OBJECT_ID":"2025-119X","EPOCH":"2026-03-05T18:06:37.626624","MEAN_MOTION":15.27594997,"ECCENTRICITY":0.0001257,"INCLINATION":42.9998,"RA_OF_ASC_NODE":329.6067,"ARG_OF_PERICENTER":234.6423,"MEAN_ANOMALY":125.4311,"EPHEMERIS_TYPE":0,"CLASSIFICATION_TYPE":"U","NORAD_CAT_ID":64254,"ELEMENT_SET_NO":999,"REV_AT_EPOCH":4356,"BSTAR":0.0016335,"MEAN_MOTION_DOT":0.00044983,"MEAN_MOTION_DDOT":0},{"OBJECT_NAME":"STARLINK-34211","OBJECT_ID":"2025-119Y","EPOCH":"2026-03-05T10:21:23.717664","MEAN_MOTION":15.27563465,"ECCENTRICITY":9.55e-5,"INCLINATION":43.0005,"RA_OF_ASC_NODE":331.4796,"ARG_OF_PERICENTER":291.8822,"MEAN_ANOMALY":68.1928,"EPHEMERIS_TYPE":0,"CLASSIFICATION_TYPE":"U","NORAD_CAT_ID":64255,"ELEMENT_SET_NO":999,"REV_AT_EPOCH":4351,"BSTAR":0.00096745,"MEAN_MOTION_DOT":0.00026442,"MEAN_MOTION_DDOT":0},{"OBJECT_NAME":"STARLINK-34329","OBJECT_ID":"2025-120A","EPOCH":"2026-03-05T11:26:53.290752","MEAN_MOTION":15.30176493,"ECCENTRICITY":5.24e-5,"INCLINATION":53.1577,"RA_OF_ASC_NODE":136.0904,"ARG_OF_PERICENTER":76.5404,"MEAN_ANOMALY":283.5655,"EPHEMERIS_TYPE":0,"CLASSIFICATION_TYPE":"U","NORAD_CAT_ID":64256,"ELEMENT_SET_NO":999,"REV_AT_EPOCH":4328,"BSTAR":0.00094848,"MEAN_MOTION_DOT":0.00027817,"MEAN_MOTION_DDOT":0},{"OBJECT_NAME":"STARLINK-34352","OBJECT_ID":"2025-120B","EPOCH":"2026-03-05T15:03:52.027200","MEAN_MOTION":15.30212434,"ECCENTRICITY":0.0001009,"INCLINATION":53.157,"RA_OF_ASC_NODE":135.6047,"ARG_OF_PERICENTER":86.3013,"MEAN_ANOMALY":273.8103,"EPHEMERIS_TYPE":0,"CLASSIFICATION_TYPE":"U","NORAD_CAT_ID":64257,"ELEMENT_SET_NO":999,"REV_AT_EPOCH":4324,"BSTAR":0.00096204,"MEAN_MOTION_DOT":0.00028253,"MEAN_MOTION_DDOT":0},{"OBJECT_NAME":"STARLINK-34308","OBJECT_ID":"2025-120C","EPOCH":"2026-03-05T14:45:38.076192","MEAN_MOTION":15.30200255,"ECCENTRICITY":0.0001414,"INCLINATION":53.1575,"RA_OF_ASC_NODE":135.5264,"ARG_OF_PERICENTER":88.1014,"MEAN_ANOMALY":272.0149,"EPHEMERIS_TYPE":0,"CLASSIFICATION_TYPE":"U","NORAD_CAT_ID":64258,"ELEMENT_SET_NO":999,"REV_AT_EPOCH":4324,"BSTAR":0.0012983,"MEAN_MOTION_DOT":0.00038293,"MEAN_MOTION_DDOT":0},{"OBJECT_NAME":"STARLINK-34306","OBJECT_ID":"2025-120D","EPOCH":"2026-03-05T11:16:15.182688","MEAN_MOTION":15.30186573,"ECCENTRICITY":6.54e-5,"INCLINATION":53.1595,"RA_OF_ASC_NODE":136.0365,"ARG_OF_PERICENTER":65.2155,"MEAN_ANOMALY":294.8914,"EPHEMERIS_TYPE":0,"CLASSIFICATION_TYPE":"U","NORAD_CAT_ID":64259,"ELEMENT_SET_NO":999,"REV_AT_EPOCH":4322,"BSTAR":0.0009474,"MEAN_MOTION_DOT":0.00027794,"MEAN_MOTION_DDOT":0},{"OBJECT_NAME":"STARLINK-34281","OBJECT_ID":"2025-120E","EPOCH":"2026-03-05T19:32:20.882976","MEAN_MOTION":15.30180014,"ECCENTRICITY":0.0001198,"INCLINATION":53.1561,"RA_OF_ASC_NODE":134.633,"ARG_OF_PERICENTER":86.3743,"MEAN_ANOMALY":273.7395,"EPHEMERIS_TYPE":0,"CLASSIFICATION_TYPE":"U","NORAD_CAT_ID":64260,"ELEMENT_SET_NO":999,"REV_AT_EPOCH":4327,"BSTAR":0.0011821,"MEAN_MOTION_DOT":0.00034794,"MEAN_MOTION_DDOT":0},{"OBJECT_NAME":"STARLINK-34297","OBJECT_ID":"2025-120F","EPOCH":"2026-03-05T14:54:44.807616","MEAN_MOTION":15.30196659,"ECCENTRICITY":0.0001203,"INCLINATION":53.1575,"RA_OF_ASC_NODE":135.5672,"ARG_OF_PERICENTER":83.0618,"MEAN_ANOMALY":277.0519,"EPHEMERIS_TYPE":0,"CLASSIFICATION_TYPE":"U","NORAD_CAT_ID":64261,"ELEMENT_SET_NO":999,"REV_AT_EPOCH":4319,"BSTAR":0.0013421,"MEAN_MOTION_DOT":0.00039598,"MEAN_MOTION_DDOT":0},{"OBJECT_NAME":"STARLINK-34325","OBJECT_ID":"2025-120G","EPOCH":"2026-03-05T20:13:22.329120","MEAN_MOTION":15.30180284,"ECCENTRICITY":0.0001147,"INCLINATION":53.1601,"RA_OF_ASC_NODE":134.8069,"ARG_OF_PERICENTER":70.0179,"MEAN_ANOMALY":290.0945,"EPHEMERIS_TYPE":0,"CLASSIFICATION_TYPE":"U","NORAD_CAT_ID":64262,"ELEMENT_SET_NO":999,"REV_AT_EPOCH":4332,"BSTAR":1.5529e-5,"MEAN_MOTION_DOT":1.01e-6,"MEAN_MOTION_DDOT":0},{"OBJECT_NAME":"STARLINK-34276","OBJECT_ID":"2025-120H","EPOCH":"2026-03-05T14:41:04.425792","MEAN_MOTION":15.30192853,"ECCENTRICITY":0.0001373,"INCLINATION":53.158,"RA_OF_ASC_NODE":135.5044,"ARG_OF_PERICENTER":109.5667,"MEAN_ANOMALY":250.5482,"EPHEMERIS_TYPE":0,"CLASSIFICATION_TYPE":"U","NORAD_CAT_ID":64263,"ELEMENT_SET_NO":999,"REV_AT_EPOCH":4329,"BSTAR":0.001278,"MEAN_MOTION_DOT":0.00037674,"MEAN_MOTION_DDOT":0},{"OBJECT_NAME":"STARLINK-34333","OBJECT_ID":"2025-120J","EPOCH":"2026-03-05T19:03:28.691712","MEAN_MOTION":15.30205604,"ECCENTRICITY":0.0001199,"INCLINATION":53.1599,"RA_OF_ASC_NODE":134.5074,"ARG_OF_PERICENTER":99.2693,"MEAN_ANOMALY":260.8443,"EPHEMERIS_TYPE":0,"CLASSIFICATION_TYPE":"U","NORAD_CAT_ID":64264,"ELEMENT_SET_NO":999,"REV_AT_EPOCH":4327,"BSTAR":0.0013109,"MEAN_MOTION_DOT":0.00038674,"MEAN_MOTION_DDOT":0},{"OBJECT_NAME":"STARLINK-34240","OBJECT_ID":"2025-120K","EPOCH":"2026-03-05T14:12:21.815424","MEAN_MOTION":15.30196639,"ECCENTRICITY":0.0001035,"INCLINATION":53.1606,"RA_OF_ASC_NODE":136.0886,"ARG_OF_PERICENTER":75.3419,"MEAN_ANOMALY":284.7696,"EPHEMERIS_TYPE":0,"CLASSIFICATION_TYPE":"U","NORAD_CAT_ID":64265,"ELEMENT_SET_NO":999,"REV_AT_EPOCH":4328,"BSTAR":0.00089153,"MEAN_MOTION_DOT":0.00026136,"MEAN_MOTION_DDOT":0},{"OBJECT_NAME":"STARLINK-34315","OBJECT_ID":"2025-120L","EPOCH":"2026-03-05T13:49:34.184640","MEAN_MOTION":15.30191987,"ECCENTRICITY":0.0001108,"INCLINATION":53.1596,"RA_OF_ASC_NODE":135.9895,"ARG_OF_PERICENTER":92.4585,"MEAN_ANOMALY":267.6543,"EPHEMERIS_TYPE":0,"CLASSIFICATION_TYPE":"U","NORAD_CAT_ID":64266,"ELEMENT_SET_NO":999,"REV_AT_EPOCH":4322,"BSTAR":0.0010484,"MEAN_MOTION_DOT":0.00030813,"MEAN_MOTION_DDOT":0},{"OBJECT_NAME":"STARLINK-34321","OBJECT_ID":"2025-120M","EPOCH":"2026-03-05T14:27:23.955840","MEAN_MOTION":15.30192728,"ECCENTRICITY":0.0001681,"INCLINATION":53.159,"RA_OF_ASC_NODE":135.4424,"ARG_OF_PERICENTER":100.6907,"MEAN_ANOMALY":259.4283,"EPHEMERIS_TYPE":0,"CLASSIFICATION_TYPE":"U","NORAD_CAT_ID":64267,"ELEMENT_SET_NO":999,"REV_AT_EPOCH":4329,"BSTAR":0.0009165,"MEAN_MOTION_DOT":0.00026877,"MEAN_MOTION_DDOT":0},{"OBJECT_NAME":"STARLINK-34319","OBJECT_ID":"2025-120N","EPOCH":"2026-03-05T11:45:07.215840","MEAN_MOTION":15.30209379,"ECCENTRICITY":9.68e-5,"INCLINATION":53.1576,"RA_OF_ASC_NODE":136.1594,"ARG_OF_PERICENTER":136.4339,"MEAN_ANOMALY":223.6738,"EPHEMERIS_TYPE":0,"CLASSIFICATION_TYPE":"U","NORAD_CAT_ID":64268,"ELEMENT_SET_NO":999,"REV_AT_EPOCH":4327,"BSTAR":0.0012141,"MEAN_MOTION_DOT":0.00035784,"MEAN_MOTION_DDOT":0},{"OBJECT_NAME":"STARLINK-34298","OBJECT_ID":"2025-120P","EPOCH":"2026-03-05T19:14:07.024416","MEAN_MOTION":15.30200823,"ECCENTRICITY":0.0001264,"INCLINATION":53.1586,"RA_OF_ASC_NODE":134.5545,"ARG_OF_PERICENTER":73.3092,"MEAN_ANOMALY":286.8047,"EPHEMERIS_TYPE":0,"CLASSIFICATION_TYPE":"U","NORAD_CAT_ID":64269,"ELEMENT_SET_NO":999,"REV_AT_EPOCH":4322,"BSTAR":0.00097009,"MEAN_MOTION_DOT":0.00028483,"MEAN_MOTION_DDOT":0}]
